IRIDIUM 33 DEB          
1 35627U 97051QZ  23258.55826926  .00177476  00000+0  10881-1 0  9998
2 35627  86.3417 354.3153 0021181  88.5750 271.7914 15.09134702757028
IRIDIUM 33 DEB          
1 35628U 97051RA  23258.58936027  .00005642  00000+0  14403-2 0  9996
2 35628  86.3682   8.7980 0016368 216.2230 143.7868 14.50314073745068
IRIDIUM 33 DEB          
1 35631U 97051RD  23257.32569243  .00001355  00000+0  39267-3 0  9996
2 35631  86.3730  13.0305 0017447 333.4918  80.8256 14.43697583753456
IRIDIUM 33 DEB          
1 35632U 97051RE  23258.60898848  .00015280  00000+0  45218-2 0  9999
2 35632  86.4171 126.2790 0108103  33.4678 327.3290 14.39959973739205
IRIDIUM 33 DEB          
1 35680U 97051RJ  23255.14141616  .00004716  00000+0  24535-2 0  9993
2 35680  86.1070  20.8377 0187814 352.0712 126.8484 14.05838071490825
IRIDIUM 33 DEB          
1 35732U 97051RK  23258.37929004  .00102356  00000+0  95219-2 0  9990
2 35732  86.2216 294.1225 0045536 168.7460 191.4799 14.93033024752178
IRIDIUM 33 DEB          
1 35742U 97051RV  23257.82658333  .00625845  00000+0  16962-1 0  9994
2 35742  86.3902  29.3480 0031345 252.7290 107.0531 15.35088336757064
IRIDIUM 33 DEB          
1 35744U 97051RX  23258.18160728  .00005611  00000+0  12821-2 0  9996
2 35744  86.3382 330.5342 0032321 117.2120 243.2387 14.55261361753503
IRIDIUM 33 DEB          
1 35747U 97051SA  23257.05095647  .00018771  00000+0  74952-2 0  9995
2 35747  86.1288   3.2581 0157185 109.9491 251.8706 14.21840486463022
IRIDIUM 33 DEB          
1 35749U 97051SC  23258.00594810  .00021864  00000+0  35142-2 0  9994
2 35749  86.3808 355.6998 0012656 263.1209  96.8568 14.71434262739310
IRIDIUM 33 DEB          
1 35797U 97051SF  23257.94921271  .00006822  00000+0  14870-2 0  9996
2 35797  86.3495 337.9198 0023776 114.7203 245.6485 14.57617402753052
IRIDIUM 33 DEB          
1 35799U 97051SH  23257.82472596  .00075841  00000+0  82095-2 0  9997
2 35799  85.9147  90.5738 0034405  85.4188 275.0966 14.87442675763426
IRIDIUM 33 DEB          
1 35802U 97051SL  23256.99697596  .00070574  00000+0  93075-2 0  9996
2 35802  86.4192  95.6299 0032653 328.1191  31.8053 14.79344643753767
IRIDIUM 33 DEB          
1 35805U 97051SP  23258.44520262  .00023971  00000+0  63723-2 0  9992
2 35805  86.3086  58.3263 0081771 335.8696  23.8684 14.46475925736199
IRIDIUM 33 DEB          
1 35806U 97051SQ  23253.11915883  .00004207  00000+0  12223-2 0  9999
2 35806  86.3515  19.4753 0014271 309.5582  50.4358 14.44078951743707
IRIDIUM 33 DEB          
1 35809U 97051ST  23258.01831112  .00006601  00000+0  15485-2 0  9991
2 35809  86.3396 341.3737 0022327 166.3520 314.8814 14.54229534748129
