[{"OBJECT_NAME":"IRIDIUM 33 DEB","OBJECT_ID":"1997-051QZ","EPOCH":"2023-09-15T13:23:54.464064","MEAN_MOTION":15.09134702,"ECCENTRICITY":0.0021181,"INCLINATION":86.3417,"RA_OF_ASC_NODE":354.3153,"ARG_OF_PERICENTER":88.575,"MEAN_ANOMALY":271.7914,"EPHEMERIS_TYPE":0,"CLASSIFICATION_TYPE":"U","NORAD_CAT_ID":35627,"ELEMENT_SET_NO":999,"REV_AT_EPOCH":75702,"BSTAR":0.010881,"MEAN_MOTION_DOT":0.00177476,"MEAN_MOTION_DDOT":0},{"OBJECT_NAME":"IRIDIUM 33 DEB","OBJECT_ID":"1997-051RA","EPOCH":"2023-09-15T14:08:40.727328","MEAN_MOTION":14.50314073,"ECCENTRICITY":0.0016368,"INCLINATION":86.3682,"RA_OF_ASC_NODE":8.798,"ARG_OF_PERICENTER":216.223,"MEAN_ANOMALY":143.7868,"EPHEMERIS_TYPE":0,"CLASSIFICATION_TYPE":"U","NORAD_CAT_ID":35628,"ELEMENT_SET_NO":999,"REV_AT_EPOCH":74506,"BSTAR":0.0014403,"MEAN_MOTION_DOT":5.642e-5,"MEAN_MOTION_DDOT":0},{"OBJECT_NAME":"IRIDIUM 33 DEB","OBJECT_ID":"1997-051RD","EPOCH":"2023-09-14T07:48:59.825952","MEAN_MOTION":14.43697583,"ECCENTRICITY":0.0017447,"INCLINATION":86.373,"RA_OF_ASC_NODE":13.0305,"ARG_OF_PERICENTER":333.4918,"MEAN_ANOMALY":80.8256,"EPHEMERIS_TYPE":0,"CLASSIFICATION_TYPE":"U","NORAD_CAT_ID":35631,"ELEMENT_SET_NO":999,"REV_AT_EPOCH":75345,"BSTAR":0.00039267,"MEAN_MOTION_DOT":1.355e-5,"MEAN_MOTION_DDOT":0},{"OBJECT_NAME":"IRIDIUM 33 DEB","OBJECT_ID":"1997-051RE","EPOCH":"2023-09-15T14:36:56.604672","MEAN_MOTION":14.39959973,"ECCENTRICITY":0.0108103,"INCLINATION":86.4171,"RA_OF_ASC_NODE":126.279,"ARG_OF_PERICENTER":33.4678,"MEAN_ANOMALY":327.329,"EPHEMERIS_TYPE":0,"CLASSIFICATION_TYPE":"U","NORAD_CAT_ID":35632,"ELEMENT_SET_NO":999,"REV_AT_EPOCH":73920,"BSTAR":0.0045218,"MEAN_MOTION_DOT":0.0001528,"MEAN_MOTION_DDOT":0},{"OBJECT_NAME":"IRIDIUM 33 DEB","OBJECT_ID":"1997-051RJ","EPOCH":"2023-09-12T03:23:38.356224","MEAN_MOTION":14.05838071,"ECCENTRICITY":0.0187814,"INCLINATION":86.107,"RA_OF_ASC_NODE":20.8377,"ARG_OF_PERICENTER":352.0712,"MEAN_ANOMALY":126.8484,"EPHEMERIS_TYPE":0,"CLASSIFICATION_TYPE":"U","NORAD_CAT_ID":35680,"ELEMENT_SET_NO":999,"REV_AT_EPOCH":49082,"BSTAR":0.0024535,"MEAN_MOTION_DOT":4.716e-5,"MEAN_MOTION_DDOT":0},{"OBJECT_NAME":"IRIDIUM 33 DEB","OBJECT_ID":"1997-051RK","EPOCH":"2023-09-15T09:06:10.659456","MEAN_MOTION":14.93033024,"ECCENTRICITY":0.0045536,"INCLINATION":86.2216,"RA_OF_ASC_NODE":294.1225,"ARG_OF_PERICENTER":168.746,"MEAN_ANOMALY":191.4799,"EPHEMERIS_TYPE":0,"CLASSIFICATION_TYPE":"U","NORAD_CAT_ID":35732,"ELEMENT_SET_NO":999,"REV_AT_EPOCH":75217,"BSTAR":0.0095219,"MEAN_MOTION_DOT":0.00102356,"MEAN_MOTION_DDOT":0},{"OBJECT_NAME":"IRIDIUM 33 DEB","OBJECT_ID":"1997-051RV","EPOCH":"2023-09-14T19:50:16.799712","MEAN_MOTION":15.35088336,"ECCENTRICITY":0.0031345,"INCLINATION":86.3902,"RA_OF_ASC_NODE":29.348,"ARG_OF_PERICENTER":252.729,"MEAN_ANOMALY":107.0531,"EPHEMERIS_TYPE":0,"CLASSIFICATION_TYPE":"U","NORAD_CAT_ID":35742,"ELEMENT_SET_NO":999,"REV_AT_EPOCH":75706,"BSTAR":0.016962,"MEAN_MOTION_DOT":0.00625845,"MEAN_MOTION_DDOT":0},{"OBJECT_NAME":"IRIDIUM 33 DEB","OBJECT_ID":"1997-051RX","EPOCH":"2023-09-15T04:21:30.868992","MEAN_MOTION":14.55261361,"ECCENTRICITY":0.0032321,"INCLINATION":86.3382,"RA_OF_ASC_NODE":330.5342,"ARG_OF_PERICENTER":117.212,"MEAN_ANOMALY":243.2387,"EPHEMERIS_TYPE":0,"CLASSIFICATION_TYPE":"U","NORAD_CAT_ID":35744,"ELEMENT_SET_NO":999,"REV_AT_EPOCH":75350,"BSTAR":0.0012821,"MEAN_MOTION_DOT":5.611e-5,"MEAN_MOTION_DDOT":0},{"OBJECT_NAME":"IRIDIUM 33 DEB","OBJECT_ID":"1997-051SA","EPOCH":"2023-09-14T01:13:22.639008","MEAN_MOTION":14.21840486,"ECCENTRICITY":0.0157185,"INCLINATION":86.1288,"RA_OF_ASC_NODE":3.2581,"ARG_OF_PERICENTER":109.9491,"MEAN_ANOMALY":251.8706,"EPHEMERIS_TYPE":0,"CLASSIFICATION_TYPE":"U","NORAD_CAT_ID":35747,"ELEMENT_SET_NO":999,"REV_AT_EPOCH":46302,"BSTAR":0.0074952,"MEAN_MOTION_DOT":0.00018771,"MEAN_MOTION_DDOT":0},{"OBJECT_NAME":"IRIDIUM 33 DEB","OBJECT_ID":"1997-051SC","EPOCH":"2023-09-15T00:08:33.915840","MEAN_MOTION":14.71434262,"ECCENTRICITY":0.0012656,"INCLINATION":86.3808,"RA_OF_ASC_NODE":355.6998,"ARG_OF_PERICENTER":263.1209,"MEAN_ANOMALY":96.8568,"EPHEMERIS_TYPE":0,"CLASSIFICATION_TYPE":"U","NORAD_CAT_ID":35749,"ELEMENT_SET_NO":999,"REV_AT_EPOCH":73931,"BSTAR":0.0035142,"MEAN_MOTION_DOT":0.00021864,"MEAN_MOTION_DDOT":0},{"OBJECT_NAME":"IRIDIUM 33 DEB","OBJECT_ID":"1997-051SF","EPOCH":"2023-09-14T22:46:51.978144","MEAN_MOTION":14.57617402,"ECCENTRICITY":0.0023776,"INCLINATION":86.3495,"RA_OF_ASC_NODE":337.9198,"ARG_OF_PERICENTER":114.7203,"MEAN_ANOMALY":245.6485,"EPHEMERIS_TYPE":0,"CLASSIFICATION_TYPE":"U","NORAD_CAT_ID":35797,"ELEMENT_SET_NO":999,"REV_AT_EPOCH":75305,"BSTAR":0.001487,"MEAN_MOTION_DOT":6.822e-5,"MEAN_MOTION_DDOT":0},{"OBJECT_NAME":"IRIDIUM 33 DEB","OBJECT_ID":"1997-051SH","EPOCH":"2023-09-14T19:47:36.322944","MEAN_MOTION":14.87442675,"ECCENTRICITY":0.0034405,"INCLINATION":85.9147,"RA_OF_ASC_NODE":90.5738,"ARG_OF_PERICENTER":85.4188,"MEAN_ANOMALY":275.0966,"EPHEMERIS_TYPE":0,"CLASSIFICATION_TYPE":"U","NORAD_CAT_ID":35799,"ELEMENT_SET_NO":999,"REV_AT_EPOCH":76342,"BSTAR":0.0082095,"MEAN_MOTION_DOT":0.00075841,"MEAN_MOTION_DDOT":0},{"OBJECT_NAME":"IRIDIUM 33 DEB","OBJECT_ID":"1997-051SL","EPOCH":"2023-09-13T23:55:38.722944","MEAN_MOTION":14.79344643,"ECCENTRICITY":0.0032653,"INCLINATION":86.4192,"RA_OF_ASC_NODE":95.6299,"ARG_OF_PERICENTER":328.1191,"MEAN_ANOMALY":31.8053,"EPHEMERIS_TYPE":0,"CLASSIFICATION_TYPE":"U","NORAD_CAT_ID":35802,"ELEMENT_SET_NO":999,"REV_AT_EPOCH":75376,"BSTAR":0.0093075,"MEAN_MOTION_DOT":0.00070574,"MEAN_MOTION_DDOT":0},{"OBJECT_NAME":"IRIDIUM 33 DEB","OBJECT_ID":"1997-051SP","EPOCH":"2023-09-15T10:41:05.506368","MEAN_MOTION":14.46475925,"ECCENTRICITY":0.0081771,"INCLINATION":86.3086,"RA_OF_ASC_NODE":58.3263,"ARG_OF_PERICENTER":335.8696,"MEAN_ANOMALY":23.8684,"EPHEMERIS_TYPE":0,"CLASSIFICATION_TYPE":"U","NORAD_CAT_ID":35805,"ELEMENT_SET_NO":999,"REV_AT_EPOCH":73619,"BSTAR":0.0063723,"MEAN_MOTION_DOT":0.00023971,"MEAN_MOTION_DDOT":0},{"OBJECT_NAME":"IRIDIUM 33 DEB","OBJECT_ID":"1997-051SQ","EPOCH":"2023-09-10T02:51:35.322912","MEAN_MOTION":14.44078951,"ECCENTRICITY":0.0014271,"INCLINATION":86.3515,"RA_OF_ASC_NODE":19.4753,"ARG_OF_PERICENTER":309.5582,"MEAN_ANOMALY":50.4358,"EPHEMERIS_TYPE":0,"CLASSIFICATION_TYPE":"U","NORAD_CAT_ID":35806,"ELEMENT_SET_NO":999,"REV_AT_EPOCH":74370,"BSTAR":0.0012223,"MEAN_MOTION_DOT":4.207e-5,"MEAN_MOTION_DDOT":0},{"OBJECT_NAME":"IRIDIUM 33 DEB","OBJECT_ID":"1997-051ST","EPOCH":"2023-09-15T00:26:22.080768","MEAN_MOTION":14.54229534,"ECCENTRICITY":0.0022327,"INCLINATION":86.3396,"RA_OF_ASC_NODE":341.3737,"ARG_OF_PERICENTER":166.352,"MEAN_ANOMALY":314.8814,"EPHEMERIS_TYPE":0,"CLASSIFICATION_TYPE":"U","NORAD_CAT_ID":35809,"ELEMENT_SET_NO":999,"REV_AT_EPOCH":74812,"BSTAR":0.0015485,"MEAN_MOTION_DOT":6.601e-5,"MEAN_MOTION_DDOT":0}]
